{
  "type": "FeatureCollection",
  "features": [
    {
      "type": "Feature",
      "properties": {
        "norad_id": 66582,
        "name": "STARLINK-35746",
        "group": "last-30-days",
        "lat": 13.713528432581198,
        "lon": 80.57694890842737,
        "alt_km": 396.27977173642284,
        "timestamp": "2025-12-22T05:49:02.183938+00:00",
        "meta_object_name": "STARLINK-35746",
        "meta_object_id": "2025-268AB",
        "meta_epoch": "2025-12-21T20:00:01.999008",
        "meta_mean_motion": 15.56477961,
        "meta_eccentricity": 0.0001464,
        "meta_inclination": 43.0007,
        "meta_ra_of_asc_node": 67.8103,
        "meta_arg_of_pericenter": 274.1775,
        "meta_mean_anomaly": 331.6418,
        "meta_ephemeris_type": 0,
        "meta_classification_type": "U",
        "meta_norad_cat_id": 66582,
        "meta_element_set_no": 999,
        "meta_rev_at_epoch": 608,
        "meta_bstar": -0.0021673,
        "meta_mean_motion_dot": -0.00154958,
        "meta_mean_motion_ddot": 0,
        "tle_line1": "1 66582U 25268AB  25355.83335647 -.00154958  00000+0 -21673-2 0  9993",
        "tle_line2": "2 66582  43.0007  67.8103 0001464 274.1775 331.6418 15.56477961  6087"
      },
      "geometry": {
        "type": "Point",
        "coordinates": [
          80.57694890842737,
          13.713528432581198
        ]
      }
    },
    {
      "type": "Feature",
      "properties": {
        "norad_id": 66583,
        "name": "STARLINK-35941",
        "group": "last-30-days",
        "lat": 14.973632000477775,
        "lon": 82.06928257090381,
        "alt_km": 396.1127374394291,
        "timestamp": "2025-12-22T05:49:02.183948+00:00",
        "meta_object_name": "STARLINK-35941",
        "meta_object_id": "2025-268AC",
        "meta_epoch": "2025-12-21T20:00:01.999008",
        "meta_mean_motion": 15.56497833,
        "meta_eccentricity": 0.0001561,
        "meta_inclination": 43.0007,
        "meta_ra_of_asc_node": 67.8044,
        "meta_arg_of_pericenter": 272.7981,
        "meta_mean_anomaly": 334.9143,
        "meta_ephemeris_type": 0,
        "meta_classification_type": "U",
        "meta_norad_cat_id": 66583,
        "meta_element_set_no": 999,
        "meta_rev_at_epoch": 608,
        "meta_bstar": -0.0022175,
        "meta_mean_motion_dot": -0.00158586,
        "meta_mean_motion_ddot": 0,
        "tle_line1": "1 66583U 25268AC  25355.83335647 -.00158586  00000+0 -22175-2 0  9993",
        "tle_line2": "2 66583  43.0007  67.8044 0001561 272.7981 334.9143 15.56497833  6084"
      },
      "geometry": {
        "type": "Point",
        "coordinates": [
          82.06928257090381,
          14.973632000477775
        ]
      }
    },
    {
      "type": "Feature",
      "properties": {
        "norad_id": 66584,
        "name": "STARLINK-35939",
        "group": "last-30-days",
        "lat": 16.218597002726636,
        "lon": 83.57518059556189,
        "alt_km": 396.08369715787103,
        "timestamp": "2025-12-22T05:49:02.183959+00:00",
        "meta_object_name": "STARLINK-35939",
        "meta_object_id": "2025-268AD",
        "meta_epoch": "2025-12-21T20:00:01.999008",
        "meta_mean_motion": 15.56473625,
        "meta_eccentricity": 0.0001515,
        "meta_inclination": 43.0007,
        "meta_ra_of_asc_node": 67.8007,
        "meta_arg_of_pericenter": 266.2751,
        "meta_mean_anomaly": 343.3768,
        "meta_ephemeris_type": 0,
        "meta_classification_type": "U",
        "meta_norad_cat_id": 66584,
        "meta_element_set_no": 999,
        "meta_rev_at_epoch": 608,
        "meta_bstar": -0.001978,
        "meta_mean_motion_dot": -0.00141668,
        "meta_mean_motion_ddot": 0,
        "tle_line1": "1 66584U 25268AD  25355.83335647 -.00141668  00000+0 -19780-2 0  9995",
        "tle_line2": "2 66584  43.0007  67.8007 0001515 266.2751 343.3768 15.56473625  6086"
      },
      "geometry": {
        "type": "Point",
        "coordinates": [
          83.57518059556189,
          16.218597002726636
        ]
      }
    },
    {
      "type": "Feature",
      "properties": {
        "norad_id": 66585,
        "name": "STARLINK-35963",
        "group": "last-30-days",
        "lat": 13.44862565028083,
        "lon": 80.2649425465074,
        "alt_km": 407.4334758912046,
        "timestamp": "2025-12-22T05:49:02.183969+00:00",
        "meta_object_name": "STARLINK-35963",
        "meta_object_id": "2025-268AE",
        "meta_epoch": "2025-12-21T20:00:01.999008",
        "meta_mean_motion": 15.54367452,
        "meta_eccentricity": 0.0001049,
        "meta_inclination": 43.0006,
        "meta_ra_of_asc_node": 67.7989,
        "meta_arg_of_pericenter": 267.3727,
        "meta_mean_anomaly": 342.4562,
        "meta_ephemeris_type": 0,
        "meta_classification_type": "U",
        "meta_norad_cat_id": 66585,
        "meta_element_set_no": 999,
        "meta_rev_at_epoch": 608,
        "meta_bstar": -0.035069,
        "meta_mean_motion_dot": -0.02097684,
        "meta_mean_motion_ddot": 0,
        "tle_line1": "1 66585U 25268AE  25355.83335647 -.02097684  00000+0 -35069-1 0  9993",
        "tle_line2": "2 66585  43.0006  67.7989 0001049 267.3727 342.4562 15.54367452  6081"
      },
      "geometry": {
        "type": "Point",
        "coordinates": [
          80.2649425465074,
          13.44862565028083
        ]
      }
    },
    {
      "type": "Feature",
      "properties": {
        "norad_id": 66586,
        "name": "TJS-21",
        "group": "last-30-days",
        "lat": 37.533227312137285,
        "lon": -175.88963320799232,
        "alt_km": 20354.86438106826,
        "timestamp": "2025-12-22T05:49:02.183982+00:00",
        "meta_object_name": "TJS-21",
        "meta_object_id": "2025-269A",
        "meta_epoch": "2025-12-18T16:58:10.473888",
        "meta_mean_motion": 2.00580748,
        "meta_eccentricity": 0.6806869,
        "meta_inclination": 63.2733,
        "meta_ra_of_asc_node": 161.7218,
        "meta_arg_of_pericenter": 269.7428,
        "meta_mean_anomaly": 18.6663,
        "meta_ephemeris_type": 0,
        "meta_classification_type": "U",
        "meta_norad_cat_id": 66586,
        "meta_element_set_no": 999,
        "meta_rev_at_epoch": 55,
        "meta_bstar": -0.059507049,
        "meta_mean_motion_dot": 1.084e-05,
        "meta_mean_motion_ddot": 0,
        "tle_line1": "1 66586U 25269A   25352.70706567  .00001084  00000+0 -59507-1 0  9990",
        "tle_line2": "2 66586  63.2733 161.7218 6806869 269.7428  18.6663  2.00580748   558"
      },
      "geometry": {
        "type": "Point",
        "coordinates": [
          -175.88963320799232,
          37.533227312137285
        ]
      }
    },
    {
      "type": "Feature",
      "properties": {
        "norad_id": 66588,
        "name": "STARLINK-36076",
        "group": "last-30-days",
        "lat": -26.90164270439999,
        "lon": -8.987280441231809,
        "alt_km": 442.9761351810557,
        "timestamp": "2025-12-22T05:49:02.183998+00:00",
        "meta_object_name": "STARLINK-36076",
        "meta_object_id": "2025-270A",
        "meta_epoch": "2025-12-21T19:31:30.258624",
        "meta_mean_motion": 15.40748824,
        "meta_eccentricity": 0.0005407,
        "meta_inclination": 42.999,
        "meta_ra_of_asc_node": 140.4952,
        "meta_arg_of_pericenter": 245.1466,
        "meta_mean_anomaly": 114.8829,
        "meta_ephemeris_type": 0,
        "meta_classification_type": "U",
        "meta_norad_cat_id": 66588,
        "meta_element_set_no": 999,
        "meta_rev_at_epoch": 574,
        "meta_bstar": 0.0011456,
        "meta_mean_motion_dot": 0.00047951,
        "meta_mean_motion_ddot": 0,
        "tle_line1": "1 66588U 25270A   25355.81354466  .00047951  00000+0  11456-2 0  9990",
        "tle_line2": "2 66588  42.9990 140.4952 0005407 245.1466 114.8829 15.40748824  5749"
      },
      "geometry": {
        "type": "Point",
        "coordinates": [
          -8.987280441231809,
          -26.90164270439999
        ]
      }
    },
    {
      "type": "Feature",
      "properties": {
        "norad_id": 66589,
        "name": "STARLINK-35447",
        "group": "last-30-days",
        "lat": -25.466814661107964,
        "lon": 107.04612503366268,
        "alt_km": 445.5534587748871,
        "timestamp": "2025-12-22T05:49:02.184009+00:00",
        "meta_object_name": "STARLINK-35447",
        "meta_object_id": "2025-270B",
        "meta_epoch": "2025-12-21T19:05:43.044576",
        "meta_mean_motion": 15.40715065,
        "meta_eccentricity": 0.0001618,
        "meta_inclination": 43.0008,
        "meta_ra_of_asc_node": 140.357,
        "meta_arg_of_pericenter": 273.519,
        "meta_mean_anomaly": 86.5481,
        "meta_ephemeris_type": 0,
        "meta_classification_type": "U",
        "meta_norad_cat_id": 66589,
        "meta_element_set_no": 999,
        "meta_rev_at_epoch": 585,
        "meta_bstar": 0.00046734,
        "meta_mean_motion_dot": 0.00019277,
        "meta_mean_motion_ddot": 0,
        "tle_line1": "1 66589U 25270B   25355.79563709  .00019277  00000+0  46734-3 0  9998",
        "tle_line2": "2 66589  43.0008 140.3570 0001618 273.5190  86.5481 15.40715065  5858"
      },
      "geometry": {
        "type": "Point",
        "coordinates": [
          107.04612503366268,
          -25.466814661107964
        ]
      }
    }
  ]
}